{
  "type": "FeatureCollection",
  "features": [
    {
      "type": "Feature",
      "properties": {
        "norad_id": 29268,
        "name": "ARIRANG-2 (KOMPSAT-2)",
        "group": "resource",
        "lat": -2.2935959774377945,
        "lon": 7.695946165892568,
        "alt_km": 680.4380254239386,
        "timestamp": "2025-12-26T04:40:05.444640+00:00",
        "meta_object_name": "ARIRANG-2 (KOMPSAT-2)",
        "meta_object_id": "2006-031A",
        "meta_epoch": "2025-12-25T23:37:33.209760",
        "meta_mean_motion": 14.64505658,
        "meta_eccentricity": 0.00131221,
        "meta_inclination": 97.8258,
        "meta_ra_of_asc_node": 187.8118,
        "meta_arg_of_pericenter": 263.482,
        "meta_mean_anomaly": 251.8583,
        "meta_ephemeris_type": 0,
        "meta_classification_type": "U",
        "meta_norad_cat_id": 29268,
        "meta_element_set_no": 999,
        "meta_rev_at_epoch": 3612,
        "meta_bstar": 0.0001109252,
        "meta_mean_motion_dot": 5.43e-06,
        "meta_mean_motion_ddot": 0,
        "tle_line1": "1 29268U 06031A   25359.98441215  .00000543  00000+0  11093-3 0  9993",
        "tle_line2": "2 29268  97.8258 187.8118 0013122 263.4820 251.8583 14.64505658 36124"
      },
      "geometry": {
        "type": "Point",
        "coordinates": [
          7.695946165892568,
          -2.2935959774377945
        ]
      }
    },
    {
      "type": "Feature",
      "properties": {
        "norad_id": 29709,
        "name": "LAPAN-TUBSAT",
        "group": "resource",
        "lat": 60.723596122250484,
        "lon": -24.138406766573905,
        "alt_km": 597.42904887441,
        "timestamp": "2025-12-26T04:40:05.444652+00:00",
        "meta_object_name": "LAPAN-TUBSAT",
        "meta_object_id": "2007-001A",
        "meta_epoch": "2025-12-25T23:32:33.399168",
        "meta_mean_motion": 14.85687949,
        "meta_eccentricity": 0.0013115,
        "meta_inclination": 98.1266,
        "meta_ra_of_asc_node": 350.4098,
        "meta_arg_of_pericenter": 34.5659,
        "meta_mean_anomaly": 325.6406,
        "meta_ephemeris_type": 0,
        "meta_classification_type": "U",
        "meta_norad_cat_id": 29709,
        "meta_element_set_no": 999,
        "meta_rev_at_epoch": 2543,
        "meta_bstar": 3.0701593e-05,
        "meta_mean_motion_dot": 2.09e-06,
        "meta_mean_motion_ddot": 0,
        "tle_line1": "1 29709U 07001A   25359.98094212  .00000209  00000+0  30702-4 0  9990",
        "tle_line2": "2 29709  98.1266 350.4098 0013115  34.5659 325.6406 14.85687949 25434"
      },
      "geometry": {
        "type": "Point",
        "coordinates": [
          -24.138406766573905,
          60.723596122250484
        ]
      }
    },
    {
      "type": "Feature",
      "properties": {
        "norad_id": 31113,
        "name": "HAIYANG-1B",
        "group": "resource",
        "lat": -0.8169015717930037,
        "lon": 163.79792586947056,
        "alt_km": 801.249608235833,
        "timestamp": "2025-12-26T04:40:05.444671+00:00",
        "meta_object_name": "HAIYANG-1B",
        "meta_object_id": "2007-010A",
        "meta_epoch": "2025-12-25T22:47:30.795936",
        "meta_mean_motion": 14.30969243,
        "meta_eccentricity": 0.00135505,
        "meta_inclination": 98.3331,
        "meta_ra_of_asc_node": 343.6829,
        "meta_arg_of_pericenter": 359.9847,
        "meta_mean_anomaly": 0.1334,
        "meta_ephemeris_type": 0,
        "meta_classification_type": "U",
        "meta_norad_cat_id": 31113,
        "meta_element_set_no": 999,
        "meta_rev_at_epoch": 97585,
        "meta_bstar": 6.0325307e-05,
        "meta_mean_motion_dot": 1.17e-06,
        "meta_mean_motion_ddot": 0,
        "tle_line1": "1 31113U 07010A   25359.94966199  .00000117  00000+0  60325-4 0  9992",
        "tle_line2": "2 31113  98.3331 343.6829 0013550 359.9847   0.1334 14.30969243975858"
      },
      "geometry": {
        "type": "Point",
        "coordinates": [
          163.79792586947056,
          -0.8169015717930037
        ]
      }
    },
    {
      "type": "Feature",
      "properties": {
        "norad_id": 31598,
        "name": "COSMO-SKYMED 1",
        "group": "resource",
        "lat": 31.799191344314032,
        "lon": 10.611237133333008,
        "alt_km": 577.6566293310407,
        "timestamp": "2025-12-26T04:40:05.444695+00:00",
        "meta_object_name": "COSMO-SKYMED 1",
        "meta_object_id": "2007-023A",
        "meta_epoch": "2025-12-25T23:11:37.091328",
        "meta_mean_motion": 14.95861375,
        "meta_eccentricity": 0.00011837,
        "meta_inclination": 97.8839,
        "meta_ra_of_asc_node": 185.4531,
        "meta_arg_of_pericenter": 77.1821,
        "meta_mean_anomaly": 282.9532,
        "meta_ephemeris_type": 0,
        "meta_classification_type": "U",
        "meta_norad_cat_id": 31598,
        "meta_element_set_no": 999,
        "meta_rev_at_epoch": 388,
        "meta_bstar": 0.00028394322,
        "meta_mean_motion_dot": 3.114e-05,
        "meta_mean_motion_ddot": 0,
        "tle_line1": "1 31598U 07023A   25359.96640152  .00003114  00000+0  28394-3 0  9992",
        "tle_line2": "2 31598  97.8839 185.4531 0001183  77.1821 282.9532 14.95861375  3887"
      },
      "geometry": {
        "type": "Point",
        "coordinates": [
          10.611237133333008,
          31.799191344314032
        ]
      }
    },
    {
      "type": "Feature",
      "properties": {
        "norad_id": 31698,
        "name": "TERRASAR-X",
        "group": "resource",
        "lat": -31.63614784818623,
        "lon": -179.24235291136895,
        "alt_km": 515.4079894790138,
        "timestamp": "2025-12-26T04:40:05.444714+00:00",
        "meta_object_name": "TERRASAR-X",
        "meta_object_id": "2007-026A",
        "meta_epoch": "2025-12-25T13:30:40.378176",
        "meta_mean_motion": 15.19155603,
        "meta_eccentricity": 0.0001851,
        "meta_inclination": 97.4447,
        "meta_ra_of_asc_node": 4.756,
        "meta_arg_of_pericenter": 79.9289,
        "meta_mean_anomaly": 280.2154,
        "meta_ephemeris_type": 0,
        "meta_classification_type": "U",
        "meta_norad_cat_id": 31698,
        "meta_element_set_no": 999,
        "meta_rev_at_epoch": 2686,
        "meta_bstar": 7.0738e-05,
        "meta_mean_motion_dot": 1.419e-05,
        "meta_mean_motion_ddot": 0,
        "tle_line1": "1 31698U 07026A   25359.56296734  .00001419  00000+0  70738-4 0  9991",
        "tle_line2": "2 31698  97.4447   4.7560 0001851  79.9289 280.2154 15.19155603 26865"
      },
      "geometry": {
        "type": "Point",
        "coordinates": [
          -179.24235291136895,
          -31.63614784818623
        ]
      }
    },
    {
      "type": "Feature",
      "properties": {
        "norad_id": 32060,
        "name": "WORLDVIEW-1 (WV-1)",
        "group": "resource",
        "lat": 73.71518797927759,
        "lon": -36.17551631067578,
        "alt_km": 487.6760823121076,
        "timestamp": "2025-12-26T04:40:05.444726+00:00",
        "meta_object_name": "WORLDVIEW-1 (WV-1)",
        "meta_object_id": "2007-041A",
        "meta_epoch": "2025-12-25T21:54:28.539648",
        "meta_mean_motion": 15.23970328,
        "meta_eccentricity": 0.00030904,
        "meta_inclination": 97.3821,
        "meta_ra_of_asc_node": 117.2002,
        "meta_arg_of_pericenter": 352.1251,
        "meta_mean_anomaly": 7.9937,
        "meta_ephemeris_type": 0,
        "meta_classification_type": "U",
        "meta_norad_cat_id": 32060,
        "meta_element_set_no": 999,
        "meta_rev_at_epoch": 1648,
        "meta_bstar": 0.00033312334,
        "meta_mean_motion_dot": 7.994e-05,
        "meta_mean_motion_ddot": 0,
        "tle_line1": "1 32060U 07041A   25359.91283032  .00007994  00000+0  33312-3 0  9998",
        "tle_line2": "2 32060  97.3821 117.2002 0003090 352.1251   7.9937 15.23970328 16481"
      },
      "geometry": {
        "type": "Point",
        "coordinates": [
          -36.17551631067578,
          73.71518797927759
        ]
      }
    },
    {
      "type": "Feature",
      "properties": {
        "norad_id": 32289,
        "name": "YAOGAN-3",
        "group": "resource",
        "lat": 68.9724734191694,
        "lon": 5.704699798761925,
        "alt_km": 590.6472383744212,
        "timestamp": "2025-12-26T04:40:05.444742+00:00",
        "meta_object_name": "YAOGAN-3",
        "meta_object_id": "2007-055A",
        "meta_epoch": "2025-12-25T23:31:04.221408",
        "meta_mean_motion": 14.89920968,
        "meta_eccentricity": 0.00012468,
        "meta_inclination": 97.8358,
        "meta_ra_of_asc_node": 26.4842,
        "meta_arg_of_pericenter": 85.8961,
        "meta_mean_anomaly": 274.2399,
        "meta_ephemeris_type": 0,
        "meta_classification_type": "U",
        "meta_norad_cat_id": 32289,
        "meta_element_set_no": 999,
        "meta_rev_at_epoch": 98006,
        "meta_bstar": 0.0001541562,
        "meta_mean_motion_dot": 1.428e-05,
        "meta_mean_motion_ddot": 0,
        "tle_line1": "1 32289U 07055A   25359.97990997  .00001428  00000+0  15416-3 0  9998",
        "tle_line2": "2 32289  97.8358  26.4842 0001246  85.8961 274.2399 14.89920968980067"
      },
      "geometry": {
        "type": "Point",
        "coordinates": [
          5.704699798761925,
          68.9724734191694
        ]
      }
    }
  ]
}